NORAD_CAT_ID,OBJECT_NAME,OBJECT_TYPE,EPOCH,MEAN_MOTION,ECCENTRICITY,INCLINATION,RA_OF_ASC_NODE,ARG_OF_PERICENTER,MEAN_ANOMALY,BSTAR,MEAN_MOTION_DOT,MEAN_MOTION_DDOT,TLE_LINE0,TLE_LINE1,TLE_LINE2,SEMIMAJOR_AXIS,PERIOD,APOGEE,PERIGEE,DECAYED
52500.0,STARLINK-3866,PAYLOAD,2023-01-08 07:16:07,15.08842227,0.0002405,53.2167,190.3408,35.6494,324.4658,0.00010104,1.32e-05,0.0,0 STARLINK-3866,1 52500U 22049BB  23008.30286285  .00001320  00000-0  10104-3 0  9991,2 52500  53.2167 190.3408 0002405  35.6494 324.4658 15.08842227 38119,6917.874,95.437,541.4019999999998,538.075,0.0
52500.0,STARLINK-3866,PAYLOAD,2023-01-08 21:34:35,15.08839906,0.0002176,53.2173,187.6639,38.0569,322.0577,7.5623e-05,9.15e-06,0.0,0 STARLINK-3866,1 52500U 22049BB  23008.89902423  .00000915  00000-0  75623-4 0  9991,2 52500  53.2173 187.6639 0002176  38.0569 322.0577 15.08839906 38042,6917.880999999999,95.438,541.251,538.24,0.0
52500.0,STARLINK-3866,PAYLOAD,2023-01-09 13:28:27,15.08842902,0.0002312,53.2168,184.6897,42.127,317.9899,3.6554e-05,2.94e-06,0.0,0 STARLINK-3866,1 52500U 22049BB  23009.56142412  .00000294  00000-0  36554-4 0  9990,2 52500  53.2168 184.6897 0002312  42.1270 317.9899 15.08842902 38147,6917.871999999999,95.437,541.336,538.137,0.0
52500.0,STARLINK-3866,PAYLOAD,2023-01-09 18:14:36,15.08842825,0.0002394,53.2174,183.7994,35.0485,325.0664,5.5266e-05,5.91e-06,0.0,0 STARLINK-3866,1 52500U 22049BB  23009.76014333  .00000591  00000-0  55266-4 0  9993,2 52500  53.2174 183.7994 0002394  35.0485 325.0664 15.08842825 38336,6917.871999999999,95.437,541.393,538.081,0.0
52500.0,STARLINK-3866,PAYLOAD,2023-01-09 21:25:22,15.08847672,0.0002423,53.2172,183.2044,34.2573,325.8575,5.9284e-05,6.55e-06,0.0,0 STARLINK-3866,1 52500U 22049BB  23009.89261961  .00000655  00000-0  59284-4 0  9993,2 52500  53.2172 183.2044 0002423  34.2573 325.8575 15.08847672 38195,6917.857,95.437,541.398,538.0459999999998,0.0
52500.0,STARLINK-3866,PAYLOAD,2023-01-10 11:43:50,15.08845003,0.0002436,53.2169,180.5274,36.5631,323.5527,-9.0329e-06,-4.32e-06,0.0,0 STARLINK-3866,1 52500U 22049BB  23010.48878178 -.00000432  00000-0 -90329-5 0  9995,2 52500  53.2169 180.5274 0002436  36.5631 323.5527 15.08845003 38288,6917.865,95.437,541.415,538.045,0.0
52500.0,STARLINK-3866,PAYLOAD,2023-01-10 18:05:23,15.08844706,0.0002445,53.2168,179.3379,36.476,323.6398,-6.094e-06,-3.85e-06,0.0,0 STARLINK-3866,1 52500U 22049BB  23010.75374096 -.00000385  00000-0 -60940-5 0  9998,2 52500  53.2168 179.3379 0002445  36.4760 323.6398 15.08844706 38322,6917.866,95.437,541.422,538.04,0.0
52500.0,STARLINK-3866,PAYLOAD,2023-01-11 03:37:41,15.08843834,0.0002512,53.2168,177.5537,35.8034,324.3126,0.00011005,1.464e-05,0.0,0 STARLINK-3866,1 52500U 22049BB  23011.15117783  .00001464  00000-0  11005-3 0  9994,2 52500  53.2168 177.5537 0002512  35.8034 324.3126 15.08843834 38542,6917.8690000000015,95.437,541.471,537.996,0.0
52500.0,STARLINK-3866,PAYLOAD,2023-01-11 13:10:00,15.08842747,0.0002547,53.2166,175.7691,36.935,323.1817,3.5138e-05,2.71e-06,0.0,0 STARLINK-3866,1 52500U 22049BB  23011.54861968  .00000271  00000-0  35138-4 0  9997,2 52500  53.2166 175.7691 0002547  36.9350 323.1817 15.08842747 38447,6917.871999999999,95.437,541.499,537.975,0.0
52500.0,STARLINK-3866,PAYLOAD,2023-01-11 19:31:31,15.08906248,0.0002656,53.2153,174.5812,32.3811,327.7344,-0.00080278,-0.00013066,0.0,0 STARLINK-3866,1 52500U 22049BB  23011.81356355 -.00013066  00000-0 -80278-3 0  9998,2 52500  53.2153 174.5812 0002656  32.3811 327.7344 15.08906248 38484,6917.678000000001,95.433,541.38,537.706,0.0
52500.0,STARLINK-3866,PAYLOAD,2023-01-12 19:22:22,15.08821051,0.0002449,53.2168,170.1198,33.795,326.3198,-0.00012008,-2.198e-05,0.0,0 STARLINK-3866,1 52500U 22049BB  23012.80720069 -.00002198  00000-0 -12008-3 0  9995,2 52500  53.2168 170.1198 0002449  33.7950 326.3198 15.08821051 38792,6917.938,95.439,541.498,538.109,0.0
52500.0,STARLINK-3866,PAYLOAD,2023-01-12 20:57:45,15.08821715,0.0002712,53.2169,169.8222,38.0168,322.1015,-0.00010932,-2.027e-05,0.0,0 STARLINK-3866,1 52500U 22049BB  23012.87344233 -.00002027  00000-0 -10932-3 0  9992,2 52500  53.2169 169.8222 0002712  38.0168 322.1015 15.08821715 38641,6917.936,95.439,541.677,537.925,0.0
52500.0,STARLINK-3866,PAYLOAD,2023-01-13 03:19:17,15.08830244,0.0003076,53.217,168.6335,45.4598,314.6645,-9.0575e-05,-1.73e-05,0.0,0 STARLINK-3866,1 52500U 22049BB  23013.13840086 -.00001730  00000-0 -90575-4 0  9991,2 52500  53.2170 168.6335 0003076  45.4598 314.6645 15.08830244 38842,6917.91,95.438,541.903,537.6469999999998,0.0
52500.0,STARLINK-3866,PAYLOAD,2023-01-13 12:51:36,15.08833405,0.0002342,53.2177,166.84900000000002,30.469,329.6437,1.2581e-05,-8.8e-07,0.0,0 STARLINK-3866,1 52500U 22049BB  23013.53583379 -.00000088  00000-0  12581-4 0  9999,2 52500  53.2177 166.8490 0002342  30.4690 329.6437 15.08833405 38907,6917.901,95.438,541.386,538.145,0.0
52500.0,STARLINK-3866,PAYLOAD,2023-01-14 03:10:03,15.08849964,0.0002283,53.2163,164.1738,33.9245,326.1892,-7.5544e-05,-1.491e-05,0.0,0 STARLINK-3866,1 52500U 22049BB  23014.13198799 -.00001491  00000-0 -75544-4 0  9992,2 52500  53.2163 164.1738 0002283  33.9245 326.1892 15.08849964 38999,6917.85,95.437,541.294,538.136,0.0
52500.0,STARLINK-3866,PAYLOAD,2023-01-14 15:53:09,15.08831053,0.0002541,53.2156,161.7949,43.2506,316.8685,0.0002576,3.813e-05,0.0,0 STARLINK-3866,1 52500U 22049BB  23014.66191884  .00003813  00000-0  25760-3 0  9990,2 52500  53.2156 161.7949 0002541  43.2506 316.8685 15.08831053 39075,6917.908,95.438,541.531,538.015,0.0
52500.0,STARLINK-3866,PAYLOAD,2023-01-15 10:57:48,15.08831694,0.0002546999999999,53.2147,158.226,45.7962,314.3239,3.178e-05,2.17e-06,0.0,0 STARLINK-3866,1 52500U 22049BB  23015.45680630  .00000217  00000-0  31780-4 0  9995,2 52500  53.2147 158.2260 0002547  45.7962 314.3239 15.08831694 39036,6917.906,95.438,541.533,538.009,0.0
52500.0,STARLINK-3866,PAYLOAD,2023-01-15 15:43:56,15.08845133,0.0002373,53.2151,157.333,46.9244,313.1947,0.00020856,3.033e-05,0.0,0 STARLINK-3866,1 52500U 22049BB  23015.65551974  .00003033  00000-0  20856-3 0  9995,2 52500  53.2151 157.3330 0002373  46.9244 313.1947 15.08845133 39061,6917.865,95.437,541.371,538.0880000000001,0.0
52500.0,STARLINK-3866,PAYLOAD,2023-01-16 06:02:25,15.08843049,0.0002394,53.2148,154.6579,52.1562,307.9646,0.00012851,1.758e-05,0.0,0 STARLINK-3866,1 52500U 22049BB  23016.25168163  .00001758  00000-0  12851-3 0  9994,2 52500  53.2148 154.6579 0002394  52.1562 307.9646 15.08843049 39316,6917.871,95.437,541.3919999999999,538.08,0.0
52500.0,STARLINK-3866,PAYLOAD,2023-01-16 13:59:20,15.08843739,0.0001932,53.2162,153.1698,51.7198,308.3968,0.00018944,2.728e-05,0.0,0 STARLINK-3866,1 52500U 22049BB  23016.58288033  .00002728  00000-0  18944-3 0  9996,2 52500  53.2162 153.1698 0001932  51.7198 308.3968 15.08843739 39201,6917.869000000001,95.437,541.07,538.3969999999999,0.0
52500.0,STARLINK-3866,PAYLOAD,2023-01-16 18:45:29,15.08851635,0.0002131999999999,53.2158,152.2787,49.293,310.8247,0.00021322,3.108e-05,0.0,0 STARLINK-3866,1 52500U 22049BB  23016.78159614  .00003108  00000-0  21322-3 0  9997,2 52500  53.2158 152.2787 0002132  49.2930 310.8247 15.08851635 39239,6917.845,95.437,541.185,538.235,0.0
52500.0,STARLINK-3866,PAYLOAD,2023-01-17 04:17:49,15.08829821,0.000175,53.2164,150.4928,31.2299,328.8797,-9.0502e-06,-4.32e-06,0.0,0 STARLINK-3866,1 52500U 22049BB  23017.17904691 -.00000432  00000-0 -90502-5 0  9991,2 52500  53.2164 150.4928 0001750  31.2299 328.8797 15.08829821 39452,6917.911999999999,95.438,540.987,538.566,0.0
52500.0,STARLINK-3866,PAYLOAD,2023-01-17 10:39:22,15.08825749,0.0002025,53.2163,149.3068,46.9963,313.1199,-0.00010484,-1.956e-05,0.0,0 STARLINK-3866,1 52500U 22049BB  23017.44401087 -.00001956  00000-0 -10484-3 0  9993,2 52500  53.2163 149.3068 0002025  46.9963 313.1199 15.08825749 39335,6917.924,95.438,541.19,538.388,0.0
52500.0,STARLINK-3866,PAYLOAD,2023-01-17 18:36:18,15.08833413,0.0001958,53.216,147.8188,51.4161,308.7006,1.211e-05,-9.5e-07,0.0,0 STARLINK-3866,1 52500U 22049BB  23017.77520975 -.00000095  00000-0  12110-4 0  9998,2 52500  53.2160 147.8188 0001958  51.4161 308.7006 15.08833413 39382,6917.901,95.438,541.12,538.411,0.0
52500.0,STARLINK-3866,PAYLOAD,2023-01-18 08:54:46,15.08837122,0.0001964,53.216,145.1423,55.8634,304.2544,0.00022696,3.326e-05,0.0,0 STARLINK-3866,1 52500U 22049BB  23018.37137340  .00003326  00000-0  22696-3 0  9993,2 52500  53.2160 145.1423 0001964  55.8634 304.2544 15.08837122 39632,6917.889,95.438,541.113,538.396,0.0
52500.0,STARLINK-3866,PAYLOAD,2023-01-18 13:40:56,15.08843643,0.000196,53.216,144.2501,56.1246,303.9933,0.00043865,6.701e-05,0.0,0 STARLINK-3866,1 52500U 22049BB  23018.57009281  .00006701  00000-0  43865-3 0  9998,2 52500  53.2160 144.2501 0001960  56.1246 303.9933 15.08843643 39507,6917.869000000001,95.437,541.09,538.378,0.0
52500.0,STARLINK-3866,PAYLOAD,2023-01-18 15:16:19,15.08848308,0.0001962,53.216,143.9528,55.7261,304.3916,0.00079624,0.0001240999999999,0.0,0 STARLINK-3866,1 52500U 22049BB  23018.63633354  .00012410  00000-0  79624-3 0  9995,2 52500  53.2160 143.9528 0001962  55.7261 304.3916 15.08848308 39516,6917.855,95.437,541.077,538.363,0.0
52500.0,STARLINK-3866,PAYLOAD,2023-01-19 10:20:56,15.08842529,0.000196,53.2164,140.3864,53.2288,306.8884,0.00033133,4.989e-05,0.0,0 STARLINK-3866,1 52500U 22049BB  23019.43121482  .00004989  00000-0  33133-3 0  9995,2 52500  53.2164 140.3864 0001960  53.2288 306.8884 15.08842529 39794,6917.8730000000005,95.437,541.094,538.382,0.0
52500.0,STARLINK-3866,PAYLOAD,2023-01-20 11:47:06,15.08842282,0.0001901,53.2162,135.6271,66.0877,294.0314,-8.127999999999999e-06,-4.18e-06,0.0,0 STARLINK-3866,1 52500U 22049BB  23020.49104937 -.00000418  00000-0 -81280-5 0  9992,2 52500  53.2162 135.6271 0001901  66.0877 294.0314 15.08842282 39952,6917.8730000000005,95.437,541.054,538.423,0.0
